MALLIGYONG-1            
1 58400U 23179A   24241.19091165  .00010813  00000+0  47176-3 0  9994
2 58400  97.3923 126.8264 0000760  46.8798 313.2502 15.22327714 42675
